[{"OBJECT_NAME":"STARLINK-32127","OBJECT_ID":"2024-120M","EPOCH":"2026-03-09T23:16:49.252800","MEAN_MOTION":15.30202857,"ECCENTRICITY":8.279e-5,"INCLINATION":53.1618,"RA_OF_ASC_NODE":318.3007,"ARG_OF_PERICENTER":84.6058,"MEAN_ANOMALY":275.5037,"EPHEMERIS_TYPE":0,"CLASSIFICATION_TYPE":"U","NORAD_CAT_ID":60146,"ELEMENT_SET_NO":999,"REV_AT_EPOCH":9642,"BSTAR":0.00016446914,"MEAN_MOTION_DOT":4.516e-5,"MEAN_MOTION_DDOT":0},{"OBJECT_NAME":"COSMOS 1975","OBJECT_ID":"1988-093A","EPOCH":"2026-03-09T14:15:08.474112","MEAN_MOTION":15.28069249,"ECCENTRICITY":0.0012117,"INCLINATION":82.5181,"RA_OF_ASC_NODE":117.7814,"ARG_OF_PERICENTER":163.8427,"MEAN_ANOMALY":196.3201,"EPHEMERIS_TYPE":0,"CLASSIFICATION_TYPE":"U","NORAD_CAT_ID":19573,"ELEMENT_SET_NO":999,"REV_AT_EPOCH":1939,"BSTAR":0.0002787,"MEAN_MOTION_DOT":7.676e-5,"MEAN_MOTION_DDOT":0}]
